[{"OBJECT_NAME":"KINEIS-2E","OBJECT_ID":"2025-028D","EPOCH":"2026-03-09T16:44:14.801856","MEAN_MOTION":14.7671567,"ECCENTRICITY":0.00019431,"INCLINATION":97.9078,"RA_OF_ASC_NODE":122.4137,"ARG_OF_PERICENTER":111.3454,"MEAN_ANOMALY":248.7964,"EPHEMERIS_TYPE":0,"CLASSIFICATION_TYPE":"U","NORAD_CAT_ID":62931,"ELEMENT_SET_NO":999,"REV_AT_EPOCH":5809,"BSTAR":0.000272559,"MEAN_MOTION_DOT":1.858e-5,"MEAN_MOTION_DDOT":0},{"OBJECT_NAME":"DELTA 2 R\/B(1)","OBJECT_ID":"1992-058B","EPOCH":"2026-03-09T12:38:44.013984","MEAN_MOTION":14.80036183,"ECCENTRICITY":0.0031916,"INCLINATION":19.7796,"RA_OF_ASC_NODE":223.0604,"ARG_OF_PERICENTER":105.8794,"MEAN_ANOMALY":254.5141,"EPHEMERIS_TYPE":0,"CLASSIFICATION_TYPE":"U","NORAD_CAT_ID":22109,"ELEMENT_SET_NO":999,"REV_AT_EPOCH":78068,"BSTAR":0.00025397141,"MEAN_MOTION_DOT":2.376e-5,"MEAN_MOTION_DDOT":0}]
